[{"OBJECT_NAME":"FLOCK 4Q-13","OBJECT_ID":"2023-174CA","EPOCH":"2026-03-09T17:32:54.310560","MEAN_MOTION":15.46982108,"ECCENTRICITY":0.00076481,"INCLINATION":97.4011,"RA_OF_ASC_NODE":156.9768,"ARG_OF_PERICENTER":150.737,"MEAN_ANOMALY":209.431,"EPHEMERIS_TYPE":0,"CLASSIFICATION_TYPE":"U","NORAD_CAT_ID":58328,"ELEMENT_SET_NO":999,"REV_AT_EPOCH":13027,"BSTAR":0.00055847806,"MEAN_MOTION_DOT":0.00028176,"MEAN_MOTION_DDOT":0},{"OBJECT_NAME":"SITRO-AIS 48","OBJECT_ID":"2024-199AN","EPOCH":"2026-03-09T22:14:21.736608","MEAN_MOTION":15.49861286,"ECCENTRICITY":0.00072978,"INCLINATION":97.3088,"RA_OF_ASC_NODE":302.9717,"ARG_OF_PERICENTER":300.4722,"MEAN_ANOMALY":59.5809,"EPHEMERIS_TYPE":0,"CLASSIFICATION_TYPE":"U","NORAD_CAT_ID":61771,"ELEMENT_SET_NO":999,"REV_AT_EPOCH":11901,"BSTAR":0.00079867142,"MEAN_MOTION_DOT":0.00044677,"MEAN_MOTION_DDOT":0}]
